{"norad_cat_id":"58326","object_name":"PICO-01A003","object_id":"2023-174BY","object_type":"PAYLOAD","country_code":"IT","epoch":"2026-05-30T04:50:08.311776","creation_date":"2026-05-30T07:36:53","launch_date":"2023-11-11","decay_date":null,"inclination":97.3803,"eccentricity":0.0005224,"mean_motion":15.45297134,"period":93.186,"semimajor_axis":6808.642,"apoapsis":434.064,"periapsis":426.95,"tle_line0":"0 PICO-01A003","tle_line1":"1 58326U 23174BY  26150.20148509  .00028801  00000-0  60495-3 0  9990","tle_line2":"2 58326  97.3803 235.2371 0005224 212.4385 147.6543 15.45297134142634","fetched_at":"2026-05-30T16:18:06.042337+00:00"}
{"norad_cat_id":"62960","object_name":"STARLINK-32877","object_id":"2025-029N","object_type":"PAYLOAD","country_code":"US","epoch":"2026-05-30T04:50:07.683648","creation_date":"2026-05-30T07:46:57","launch_date":"2025-02-11","decay_date":null,"inclination":53.1578,"eccentricity":9.26e-05,"mean_motion":15.30223413,"period":94.104,"semimajor_axis":6853.282,"apoapsis":475.782,"periapsis":474.513,"tle_line0":"0 STARLINK-32877","tle_line1":"1 62960U 25029N   26150.20147782  .00026573  00000-0  90545-3 0  9995","tle_line2":"2 62960  53.1578 214.1085 0000926  98.0049 262.1057 15.30223413 73773","fetched_at":"2026-05-30T16:18:06.042337+00:00"}
{"norad_cat_id":"40920","object_name":"COSMOS 2507","object_id":"2015-050A","object_type":"PAYLOAD","country_code":"CIS","epoch":"2026-05-30T04:50:07.503936","creation_date":"2026-05-30T07:26:56","launch_date":"2015-09-23","decay_date":null,"inclination":82.4911,"eccentricity":0.0010874,"mean_motion":12.42926033,"period":115.856,"semimajor_axis":7872.361,"apoapsis":1502.786,"periapsis":1485.665,"tle_line0":"0 COSMOS 2507","tle_line1":"1 40920U 15050A   26150.20147574 -.00000043  00000-0 -38287-3 0  9990","tle_line2":"2 40920  82.4911  90.8667 0010874  33.8786 326.2986 12.42926033484625","fetched_at":"2026-05-30T16:18:06.042337+00:00"}
{"norad_cat_id":"13261","object_name":"SL-8 DEB","object_id":"1982-055C","object_type":"DEBRIS","country_code":"CIS","epoch":"2026-05-30T04:50:07.483200","creation_date":"2026-05-30T07:36:53","launch_date":"1982-06-06","decay_date":null,"inclination":65.8352,"eccentricity":0.0015214,"mean_motion":13.72890736,"period":104.888,"semimajor_axis":7367.348,"apoapsis":1000.422,"periapsis":978.004,"tle_line0":"0 SL-8 DEB","tle_line1":"1 13261U 82055C   26150.20147550 -.00000021  00000-0  64066-4 0  9991","tle_line2":"2 13261  65.8352 245.0519 0015214 320.6130  49.6842 13.72890736203653","fetched_at":"2026-05-30T16:18:06.042337+00:00"}
{"norad_cat_id":"10627","object_name":"DELTA 1 DEB","object_id":"1977-065EW","object_type":"DEBRIS","country_code":"US","epoch":"2026-05-30T04:50:05.253216","creation_date":"2026-05-30T07:26:56","launch_date":"1977-07-14","decay_date":null,"inclination":28.9703,"eccentricity":0.057197,"mean_motion":13.45821692,"period":106.998,"semimajor_axis":7465.808,"apoapsis":1514.695,"periapsis":660.651,"tle_line0":"0 DELTA 1 DEB","tle_line1":"1 10627U 77065EW  26150.20144969  .00007160  00000-0  43107-2 0  9991","tle_line2":"2 10627  28.9703 185.3920 0571970 337.4193  20.2112 13.45821692327836","fetched_at":"2026-05-30T16:18:06.042337+00:00"}
{"norad_cat_id":"7165","object_name":"DELTA 1 DEB","object_id":"1973-086ED","object_type":"DEBRIS","country_code":"US","epoch":"2026-05-30T04:50:01.231296","creation_date":"2026-05-30T07:26:56","launch_date":"1973-11-06","decay_date":null,"inclination":101.6601,"eccentricity":0.0167951,"mean_motion":13.14072641,"period":109.583,"semimajor_axis":7585.582,"apoapsis":1334.848,"periapsis":1080.047,"tle_line0":"0 DELTA 1 DEB","tle_line1":"1  7165U 73086ED  26150.20140314  .00001127  00000-0  29826-2 0  9992","tle_line2":"2  7165 101.6601 248.5517 0167951 284.9202  88.4565 13.14072641486917","fetched_at":"2026-05-30T16:18:06.042337+00:00"}
{"norad_cat_id":"59086","object_name":"STARLINK-31279","object_id":"2024-041N","object_type":"PAYLOAD","country_code":"US","epoch":"2026-05-30T04:50:00.154752","creation_date":"2026-05-30T07:36:53","launch_date":"2024-02-29","decay_date":null,"inclination":42.9986,"eccentricity":8.03e-05,"mean_motion":15.27595492,"period":94.266,"semimajor_axis":6861.14,"apoapsis":483.556,"periapsis":482.454,"tle_line0":"0 STARLINK-31279","tle_line1":"1 59086U 24041N   26150.20139068 -.00010599  00000-0 -37602-3 0  9999","tle_line2":"2 59086  42.9986 210.7113 0000803 278.8433  81.2327 15.27595492126785","fetched_at":"2026-05-30T16:18:06.042337+00:00"}
{"norad_cat_id":"44072","object_name":"PRISMA","object_id":"2019-015A","object_type":"PAYLOAD","country_code":"IT","epoch":"2026-05-30T04:49:58.894176","creation_date":"2026-05-30T07:26:56","launch_date":"2019-03-22","decay_date":null,"inclination":97.8651,"eccentricity":0.0001454,"mean_motion":14.83660362,"period":97.057,"semimajor_axis":6995.931,"apoapsis":618.813,"periapsis":616.779,"tle_line0":"0 PRISMA","tle_line1":"1 44072U 19015A   26150.20137609  .00000624  00000-0  82031-4 0  9995","tle_line2":"2 44072  97.8651 225.2410 0001454  91.3207 268.8173 14.83660362389382","fetched_at":"2026-05-30T16:18:06.042337+00:00"}
{"norad_cat_id":"63298","object_name":"OBJECT H","object_id":"2025-055H","object_type":"UNKNOWN","country_code":"PRC","epoch":"2026-05-30T04:49:58.329984","creation_date":"2026-05-30T07:46:57","launch_date":"2025-03-17","decay_date":null,"inclination":97.6496,"eccentricity":0.0007387,"mean_motion":15.36973101,"period":93.691,"semimajor_axis":6833.203,"apoapsis":460.116,"periapsis":450.02,"tle_line0":"0 OBJECT H","tle_line1":"1 63298U 25055H   26150.20136956  .00060276  00000-0  16567-2 0  9999","tle_line2":"2 63298  97.6496 295.9878 0007387 198.9632 161.1337 15.36973101 66686","fetched_at":"2026-05-30T16:18:06.042337+00:00"}
{"norad_cat_id":"52184","object_name":"NUSAT-26 (M SOMERVILLE)","object_id":"2022-033AD","object_type":"PAYLOAD","country_code":"ARGN","epoch":"2026-05-30T04:49:57.085824","creation_date":"2026-05-30T07:36:53","launch_date":"2022-04-01","decay_date":null,"inclination":97.2355,"eccentricity":0.0004145,"mean_motion":15.4156106,"period":93.412,"semimajor_axis":6819.638,"apoapsis":444.33,"periapsis":438.677,"tle_line0":"0 NUSAT-26 (M SOMERVILLE)","tle_line1":"1 52184U 22033AD  26150.20135516  .00034389  00000-0  81788-3 0  9999","tle_line2":"2 52184  97.2355 229.4300 0004145 316.7908  43.3014 15.41561060101939","fetched_at":"2026-05-30T16:18:06.042337+00:00"}
{"norad_cat_id":"59917","object_name":"OBJECT A","object_id":"2024-105A","object_type":"UNKNOWN","country_code":"PRC","epoch":"2026-05-30T04:49:54.854976","creation_date":"2026-05-30T07:36:53","launch_date":"2024-05-30","decay_date":null,"inclination":97.583,"eccentricity":0.0011665,"mean_motion":15.16976415,"period":94.926,"semimajor_axis":6893.122,"apoapsis":523.028,"periapsis":506.946,"tle_line0":"0 OBJECT A","tle_line1":"1 59917U 24105A   26150.20132934  .00004083  00000-0  20994-3 0  9993","tle_line2":"2 59917  97.5830 165.4266 0011665 293.6108  66.3900 15.16976415110307","fetched_at":"2026-05-30T16:18:06.042337+00:00"}
{"norad_cat_id":"4547","object_name":"THORAD AGENA D DEB","object_id":"1969-082GN","object_type":"DEBRIS","country_code":"US","epoch":"2026-05-30T04:49:52.985280","creation_date":"2026-05-30T07:26:56","launch_date":"1969-09-30","decay_date":null,"inclination":69.9878,"eccentricity":0.0035232,"mean_motion":14.35221424,"period":100.333,"semimajor_axis":7152.468,"apoapsis":799.532,"periapsis":749.133,"tle_line0":"0 THORAD AGENA D DEB","tle_line1":"1  4547U 69082GN  26150.20130770  .00001205  00000-0  43814-3 0  9990","tle_line2":"2  4547  69.9878 233.8094 0035232 231.9752 127.8193 14.35221424929438","fetched_at":"2026-05-30T16:18:06.042337+00:00"}
{"norad_cat_id":"42986","object_name":"COSMOS 2523","object_id":"2017-037E","object_type":"PAYLOAD","country_code":"CIS","epoch":"2026-05-30T04:49:51.589920","creation_date":"2026-05-30T07:26:56","launch_date":"2017-06-23","decay_date":null,"inclination":97.4992,"eccentricity":0.0065117,"mean_motion":14.9537759,"period":96.297,"semimajor_axis":6959.338,"apoapsis":626.52,"periapsis":535.886,"tle_line0":"0 COSMOS 2523","tle_line1":"1 42986U 17037E   26150.20129155  .00002793  00000-0  24776-3 0  9996","tle_line2":"2 42986  97.4992 164.0694 0065117 290.9319  68.4941 14.95377590466271","fetched_at":"2026-05-30T16:18:06.042337+00:00"}
{"norad_cat_id":"56241","object_name":"CZ-6A DEB","object_id":"2022-151ABH","object_type":"DEBRIS","country_code":"PRC","epoch":"2026-05-30T04:49:51.576096","creation_date":"2026-05-30T07:36:53","launch_date":"2022-11-11","decay_date":null,"inclination":98.8249,"eccentricity":0.0081444,"mean_motion":14.62615793,"period":98.454,"semimajor_axis":7062.877,"apoapsis":742.265,"periapsis":627.22,"tle_line0":"0 CZ-6A DEB","tle_line1":"1 56241U 22151ABH 26150.20129139  .00011559  00000-0  21762-2 0  9991","tle_line2":"2 56241  98.8249 242.1151 0081444  14.6635 345.6900 14.62615793175589","fetched_at":"2026-05-30T16:18:06.042337+00:00"}
{"norad_cat_id":"40717","object_name":"DMC 3-FM3","object_id":"2015-032C","object_type":"PAYLOAD","country_code":"UK","epoch":"2026-05-30T04:49:50.014848","creation_date":"2026-05-30T07:26:56","launch_date":"2015-07-10","decay_date":null,"inclination":97.6597,"eccentricity":0.0006677,"mean_motion":14.85712762,"period":96.923,"semimajor_axis":6989.487,"apoapsis":616.018,"periapsis":606.685,"tle_line0":"0 DMC 3-FM3","tle_line1":"1 40717U 15032C   26150.20127332  .00001487  00000-0  17721-3 0  9995","tle_line2":"2 40717  97.6597  19.3833 0006677 110.5900 249.6033 14.85712762587249","fetched_at":"2026-05-30T16:18:06.042337+00:00"}
